NORAD_CAT_ID,OBJECT_NAME,OBJECT_TYPE,EPOCH,MEAN_MOTION,ECCENTRICITY,INCLINATION,RA_OF_ASC_NODE,ARG_OF_PERICENTER,MEAN_ANOMALY,BSTAR,MEAN_MOTION_DOT,MEAN_MOTION_DDOT,TLE_LINE0,TLE_LINE1,TLE_LINE2,SEMIMAJOR_AXIS,PERIOD,APOGEE,PERIGEE,DECAYED
51735.0,STARLINK-3517,PAYLOAD,2022-02-25 16:00:01,15.77705435,6.02e-05,53.2179,119.4531,85.8109,60.2701,-0.0053177,-0.0082616,0.0,0 STARLINK-3517,1 51735U 22016X   22056.66668981 -.00826160  00000-0 -53177-2 0  9997,2 51735  53.2179 119.4531 0000602  85.8109  60.2701 15.77705435  1914,6715.081,91.272,337.35,336.541,0.0
51735.0,STARLINK-3517,PAYLOAD,2022-02-25 22:00:00,15.77269547,0.0001021,53.2176,118.2058,90.0872,36.4825,-0.0057743,-0.00874691,0.0,0 STARLINK-3517,1 51735U 22016X   22056.91667824 -.00874691  00000-0 -57743-2 0  9995,2 51735  53.2176 118.2058 0001021  90.0872  36.4825 15.77269547  1363,6716.318,91.297,338.86800000000005,337.497,0.0
51735.0,STARLINK-3517,PAYLOAD,2022-02-26 06:00:00,15.76640261,0.0001193,53.2178,116.5472,97.4956,122.5071,-0.005936,-0.00874304,0.0,0 STARLINK-3517,1 51735U 22016X   22057.25001157 -.00874304  00000-0 -59360-2 0  9992,2 51735  53.2178 116.5472 0001193  97.4956 122.5071 15.76640261  2007,6718.105,91.333,340.771,339.168,0.0
51735.0,STARLINK-3517,PAYLOAD,2022-02-26 14:00:01,15.76009739,0.0001047,53.2174,114.8919,87.9721,224.7067,-0.0060916,-0.00872533,0.0,0 STARLINK-3517,1 51735U 22016X   22057.58334491 -.00872533  00000-0 -60916-2 0  9999,2 51735  53.2174 114.8919 0001047  87.9721 224.7067 15.76009739  1460,6719.896,91.37,342.465,341.05800000000005,0.0
51735.0,STARLINK-3517,PAYLOAD,2022-02-26 22:00:00,15.75380745,9.32e-05,53.2174,113.2343,84.2926,320.3083,-0.0062643,-0.00872602,0.0,0 STARLINK-3517,1 51735U 22016X   22057.91667824 -.00872602  00000-0 -62643-2 0  9991,2 51735  53.2174 113.2343 0000932  84.2926 320.3083 15.75380745  1529,6721.685,91.406,344.176,342.923,0.0
51735.0,STARLINK-3517,PAYLOAD,2022-02-27 06:00:00,15.74752288,0.0001172,53.2175,111.5804,67.0216,68.7429,-0.0064485,-0.00873736,0.0,0 STARLINK-3517,1 51735U 22016X   22058.25001157 -.00873736  00000-0 -64485-2 0  9995,2 51735  53.2175 111.5804 0001172  67.0216  68.7429 15.74752288  2152,6723.473000000001,91.443,346.126,344.55,0.0
51735.0,STARLINK-3517,PAYLOAD,2022-02-27 14:00:01,15.74119016,0.0001194,53.2176,109.9295,72.5063,153.6668,-0.0065795,-0.00867783,0.0,0 STARLINK-3517,1 51735U 22016X   22058.58334491 -.00867783  00000-0 -65795-2 0  9991,2 51735  53.2176 109.9295 0001194  72.5063 153.6668 15.74119016  1629,6725.276,91.48,347.944,346.338,0.0
51735.0,STARLINK-3517,PAYLOAD,2022-02-27 22:00:00,15.73310082,0.0001168,53.2177,108.2764,74.7151,241.1355,-0.0011813,-0.00163984,0.0,0 STARLINK-3517,1 51735U 22016X   22058.91667824 -.00163984  00000-0 -11813-2 0  9991,2 51735  53.2177 108.2764 0001168  74.7151 241.1355 15.73310082  2268,6727.581,91.527,350.232,348.661,0.0
51735.0,STARLINK-3517,PAYLOAD,2022-02-28 06:00:00,15.73207316,0.0001147,53.2177,106.6274,63.5474,341.2893,-3.8969e-05,-6.086e-05,0.0,0 STARLINK-3517,1 51735U 22016X   22059.25001157 -.00006086  00000-0 -38969-4 0  9992,2 51735  53.2177 106.6274 0001147  63.5474 341.2893 15.73207316  2317,6727.874,91.533,350.511,348.968,0.0
51735.0,STARLINK-3517,PAYLOAD,2022-02-28 14:00:01,15.73189985,0.0001339,53.2187,104.9861,69.7645,63.9895,0.0006742,0.00095035,0.0,0 STARLINK-3517,1 51735U 22016X   22059.58334491  .00095035  00000-0  67420-3 0  9991,2 51735  53.2187 104.9861 0001339  69.7645  63.9895 15.73189985  1783,6727.924,91.534,350.69,348.88800000000015,0.0
51735.0,STARLINK-3517,PAYLOAD,2022-02-28 22:00:00,15.73230586,0.000121,53.2187,103.3344,78.77,143.9488,0.00048757,0.00068456,0.0,0 STARLINK-3517,1 51735U 22016X   22059.91667824  .00068456  00000-0  48757-3 0  9996,2 51735  53.2187 103.3344 0001210  78.7700 143.9488 15.73230586  2425,6727.808000000001,91.531,350.487,348.8590000000001,0.0
51735.0,STARLINK-3517,PAYLOAD,2022-03-01 14:00:01,15.73225445,0.0001077,53.2187,100.0372,59.1527,341.5987,-0.00045102,-0.00063508,0.0,0 STARLINK-3517,1 51735U 22016X   22060.58334491 -.00063508  00000-0 -45102-3 0  9998,2 51735  53.2187 100.0372 0001077  59.1527 341.5987 15.73225445  2520,6727.823,91.532,350.412,348.963,0.0
51735.0,STARLINK-3517,PAYLOAD,2022-03-01 22:00:01,15.73110864,0.0001017,53.2186,98.3857,70.9759,58.7919,0.00028375,0.00039237,0.0,0 STARLINK-3517,1 51735U 22016X   22060.91668981  .00039237  00000-0  28375-3 0  9992,2 51735  53.2186  98.3857 0001017  70.9759  58.7919 15.73110864  1998,6728.149,91.538,350.699,349.33,0.0
51735.0,STARLINK-3517,PAYLOAD,2022-03-02 06:00:00,15.731810500000002,0.0001162,53.2184,96.7374,70.7642,147.763,0.00023259,0.00032121,0.0,0 STARLINK-3517,1 51735U 22016X   22061.25001157  .00032121  00000-0  23259-3 0  9997,2 51735  53.2184  96.7374 0001162  70.7642 147.7630 15.73181050  2638,6727.949000000001,91.534,350.596,349.032,0.0
51735.0,STARLINK-3517,PAYLOAD,2022-03-02 14:00:01,15.73190263,0.0001208,53.2178,95.089,59.6188,247.8301,0.00051511,0.00072266,0.0,0 STARLINK-3517,1 51735U 22016X   22061.58334491  .00072266  00000-0  51511-3 0  9999,2 51735  53.2178  95.0890 0001208  59.6188 247.8301 15.73190263  2103,6727.9230000000025,91.534,350.601,348.975,0.0
51735.0,STARLINK-3517,PAYLOAD,2022-03-02 22:00:00,15.73239583,0.0001182,53.2178,93.4372,74.0216,322.381,-0.00012325,-0.00017909,0.0,0 STARLINK-3517,1 51735U 22016X   22061.91667824 -.00017909  00000-0 -12325-3 0  9990,2 51735  53.2178  93.4372 0001182  74.0216 322.3810 15.73239583  2152,6727.781999999997,91.531,350.4430000000001,348.852,0.0
51735.0,STARLINK-3517,PAYLOAD,2022-03-03 06:00:00,15.73204351,0.0001392,53.218,91.7886,72.8503,52.5197,1.2594000000000003e-05,1.148e-05,0.0,0 STARLINK-3517,1 51735U 22016X   22062.25001157  .00001148  00000-0  12594-4 0  9994,2 51735  53.2180  91.7886 0001392  72.8503  52.5197 15.73204351  2788,6727.8830000000025,91.533,350.684,348.811,0.0
51735.0,STARLINK-3517,PAYLOAD,2022-03-03 14:00:01,15.73234946,0.0001359,53.2178,90.1401,64.3081,150.0043,-0.00031051,-0.00044036,0.0,0 STARLINK-3517,1 51735U 22016X   22062.58334491 -.00044036  00000-0 -31051-3 0  9993,2 51735  53.2178  90.1401 0001359  64.3081 150.0043 15.73234946  2250,6727.795999999999,91.531,350.575,348.746,0.0
51735.0,STARLINK-3517,PAYLOAD,2022-03-03 18:00:00,15.73110078,0.0001742,53.2174,89.3079,71.3358,7.3561,0.0010913,0.00154794,0.0,0 STARLINK-3517,1 51735U 22016X   22062.75001157  .00154794  00000-0  10913-2 0  9996,2 51735  53.2174  89.3079 0001742  71.3358   7.3561 15.73110078  2863,6728.151999999999,91.538,351.189,348.845,0.0
51735.0,STARLINK-3517,PAYLOAD,2022-03-03 22:00:00,15.73203901,0.0001669,53.2175,88.4813,78.399,224.7165,7.798300000000001e-06,4.74e-06,0.0,0 STARLINK-3517,1 51735U 22016X   22062.91667824  .00000474  00000-0  77983-5 0  9991,2 51735  53.2175  88.4813 0001669  78.3990 224.7165 15.73203901  2310,6727.884,91.533,350.872,348.626,0.0
51735.0,STARLINK-3517,PAYLOAD,2022-03-04 06:00:02,15.7325264,0.0001227,53.2179,86.84,65.4833,326.842,-0.00050946,-0.00071672,0.0,0 STARLINK-3517,1 51735U 22016X   22063.25002315 -.00071672  00000-0 -50946-3 0  9995,2 51735  53.2179  86.8400 0001227  65.4833 326.8420 15.73252640  2942,6727.745,91.53,350.436,348.785,0.0
51735.0,STARLINK-3517,PAYLOAD,2022-03-04 14:00:01,15.73196129,0.0001200999999999,53.2173,85.191,58.7002,62.6144,0.00034713,0.0004837,0.0,0 STARLINK-3517,1 51735U 22016X   22063.58335648  .00048370  00000-0  34713-3 0  9990,2 51735  53.2173  85.1910 0001201  58.7002  62.6144 15.73196129  2991,6727.906,91.533,350.579,348.963,0.0
51735.0,STARLINK-3517,PAYLOAD,2022-03-04 22:00:00,15.73227081,0.0001082,53.2173,83.5395,72.7754,137.4199,0.00013741,0.0001873,0.0,0 STARLINK-3517,1 51735U 22016X   22063.91667824  .00018730  00000-0  13741-3 0  9996,2 51735  53.2173  83.5395 0001082  72.7754 137.4199 15.73227081  2462,6727.818,91.532,350.411,348.955,0.0
51735.0,STARLINK-3517,PAYLOAD,2022-03-05 06:00:00,15.73240015,0.0001283,53.2177,81.8912,68.4839,230.6834,-0.00038563,-0.00054483,0.0,0 STARLINK-3517,1 51735U 22016X   22064.25001157 -.00054483  00000-0 -38563-3 0  9991,2 51735  53.2177  81.8912 0001283  68.4839 230.6834 15.73240015  3107,6727.781,91.531,350.509,348.783,0.0
51735.0,STARLINK-3517,PAYLOAD,2022-03-05 14:00:01,15.73227529,0.0001332,53.2177,80.2423,61.3276,326.8154,-0.00054904,-0.00077062,0.0,0 STARLINK-3517,1 51735U 22016X   22064.58334491 -.00077062  00000-0 -54904-3 0  9992,2 51735  53.2177  80.2423 0001332  61.3276 326.8154 15.73227529  2577,6727.816999999999,91.532,350.57800000000015,348.786,0.0
51735.0,STARLINK-3517,PAYLOAD,2022-03-05 22:00:01,15.73135276,0.0001329,53.2179,78.5908,74.567,42.5736,0.00068775,0.0009675,0.0,0 STARLINK-3517,1 51735U 22016X   22064.91668981  .00096750  00000-0  68775-3 0  9997,2 51735  53.2179  78.5908 0001329  74.5670  42.5736 15.73135276  3203,6728.08,91.537,350.839,349.051,0.0
51735.0,STARLINK-3517,PAYLOAD,2022-03-06 14:00:01,15.73205918,0.0001234,53.2173,75.2937,61.6591,233.2697,0.00048463,0.00067964,0.0,0 STARLINK-3517,1 51735U 22016X   22065.58334491  .00067964  00000-0  48463-3 0  9994,2 51735  53.2173  75.2937 0001234  61.6591 233.2697 15.73205918  3315,6727.878000000002,91.533,350.574,348.913,0.0
51735.0,STARLINK-3517,PAYLOAD,2022-03-06 22:00:00,15.73243851,0.0001058,53.2176,73.6424,74.0814,309.7896,-0.00021472,-0.000307,0.0,0 STARLINK-3517,1 51735U 22016X   22065.91667824 -.00030700  00000-0 -21472-3 0  9991,2 51735  53.2176  73.6424 0001058  74.0814 309.7896 15.73243851  3364,6727.77,91.531,350.347,348.923,0.0
51735.0,STARLINK-3517,PAYLOAD,2022-03-07 06:00:00,15.73217618,0.0001122,53.2179,71.9947,64.5511,48.2727,-0.0010704,-0.00148332,0.0,0 STARLINK-3517,1 51735U 22016X   22066.25001157 -.00148332  00000-0 -10704-2 0  9996,2 51735  53.2179  71.9947 0001122  64.5511  48.2727 15.73217618  3414,6727.845,91.532,350.465,348.955,0.0
